TDRS 3                  
1 19548U 88091B   22313.38452154 -.00000299  00000+0  00000+0 0  9995
2 19548  13.6105 350.1926 0037584 327.1060 180.8614  1.00277536112178
HST                     
1 20580U 90037B   22313.63658476  .00004297  00000+0  23850-3 0  9992
2 20580  28.4707 286.4044 0002668 160.8552   2.5140 15.11229159588191
TDRS 5                  
1 21639U 91054B   22313.82877865  .00000085  00000+0  00000+0 0  9993
2 21639  14.2274   3.5116 0022839 352.1783 183.9870  1.00269433114529
TDRS 6                  
1 22314U 93003B   22313.91854560 -.00000293  00000+0  00000+0 0  9999
2 22314  14.1411   6.7660 0008822 147.1175 180.0818  1.00271079109213
TDRS 7                  
1 23613U 95035B   22313.71242940 -.00000199  00000+0  00000+0 0  9995
2 23613  13.9233 357.4684 0024294  56.2296 336.3540  1.00268213100060
ISS (ZARYA)             
1 25544U 98067A   22314.50373836  .00014546  00000+0  26300-3 0  9990
2 25544  51.6436 331.7596 0006814  57.2751  98.3376 15.49917581367874
LANDSAT 7               
1 25682U 99020A   22314.22322749  .00000641  00000+0  14325-3 0  9994
2 25682  97.9607 356.6691 0001403  86.4321 273.7052 14.59841167253834
TERRA                   
1 25994U 99068A   22314.15193437  .00000589  00000+0  13530-3 0  9992
2 25994  98.1228  22.6895 0002501  62.0129 327.9981 14.58909240217844
TDRS 8                  
1 26388U 00034A   22313.84746556 -.00000229  00000+0  00000+0 0  9992
2 26388  10.5965  41.5372 0016450 335.4074  66.1552  1.00280366 81997
TIMED                   
1 26998U 01055B   22314.12839702  .00001246  00000+0  13658-3 0  9997
2 26998  74.0727 349.3818 0001992 247.1541 112.9430 14.88934765134827
TDRS 9                  
1 27389U 02011A   22313.32445267 -.00000282  00000+0  00000+0 0  9998
2 27389   9.3271  59.4828 0024266 292.8428 110.7207  1.00269483 77256
AQUA                    
1 27424U 02022A   22314.11381083  .00001147  00000+0  26254-3 0  9996
2 27424  98.2619 254.7185 0001657  97.7237 318.5203 14.57493344 91446
TDRS 10                 
1 27566U 02055A   22313.60856124  .00000094  00000+0  00000+0 0  9992
2 27566   8.4679  49.1311 0004457 323.2244  84.3966  1.00274743 73049
SORCE                   
1 27651U 03004A   22313.83674729  .00003000  00000+0  31580-3 0  9997
2 27651  39.9934 125.4958 0021588  52.7831 307.4925 14.90368651 74761
AURA                    
1 28376U 04026A   22313.86968662  .00001168  00000+0  26919-3 0  9995
2 28376  98.2239 255.1971 0001304  87.3808 272.7540 14.57121449974402
SWIFT                   
1 28485U 04047A   22313.82585413  .00007186  00000+0  43056-3 0  9991
2 28485  20.5584   9.2049 0010123 344.8215  15.1915 15.07474475985504
THEMIS A                
1 30580U 07004A   22313.65802264 -.00000198  00000+0  98876-2 0  9999
2 30580  12.9915 330.0671 8362666 195.8259 180.8743  0.87834952 29717
THEMIS D                
1 30797U 07004D   22313.40798024 -.00000280  00000+0  00000+0 0  9991
2 30797   8.8387 318.6257 8317067 210.4841 113.8738  0.87837228 29519
THEMIS E                
1 30798U 07004E   22313.72679572 -.00000309  00000+0  00000+0 0  9995
2 30798   9.8855 333.4300 8309798 197.6754 205.3301  0.87840663 54356
AIM                     
1 31304U 07015A   22313.73846798  .00017443  00000+0  80303-3 0  9992
2 31304  97.8568 238.5725 0002657 209.6529 150.4554 15.20379275853248
FGRST (GLAST)           
1 33053U 08029A   22314.11905118  .00003306  00000+0  16711-3 0  9991
2 33053  25.5826 253.6058 0012206  69.4591 290.7253 15.12664029795991
WISE                    
1 36119U 09071A   22313.81647381  .00010976  00000+0  31918-3 0  9993
2 36119  97.2248 345.3965 0003718 119.7194 240.4421 15.35607747717793
TDRS 11                 
1 39070U 13004A   22313.75573448  .00000084  00000+0  00000+0 0  9991
2 39070   2.8183 350.4382 0003753  69.4039  86.8524  1.00276827 33504
TDRS 12                 
1 39504U 14004A   22313.85395715 -.00000267  00000+0  00000+0 0  9998
2 39504   3.7488 349.9925 0002999 214.9021 110.2697  1.00282294 32258
GPM-CORE                
1 39574U 14009C   22313.82606663  .00026900  00000+0  38258-3 0  9995
2 39574  65.0016  53.4770 0011989 274.9136  85.0642 15.56222362494224
MMS 1                   
1 40482U 15011A   22312.74992292 -.00000402  00000+0  00000+0 0  9995
2 40482  30.2281  93.4276 8849982  65.7177 109.9380  0.28546891 13713
MMS 2                   
1 40483U 15011B   22311.70027015 -.00000274  00000+0  00000+0 0  9990
2 40483  30.2153  93.4598 8848249  65.6945   2.0915  0.28544214 13776
MMS 3                   
1 40484U 15011C   22311.87388126 -.00000296  00000+0  00000+0 0  9996
2 40484  30.2240  93.4227 8846711  65.7056  19.9820  0.28544760 13452
MMS 4                   
1 40485U 15011D   22311.87388126 -.00000295  00000+0  00000+0 0  9996
2 40485  30.2225  93.4941 8847051  65.6498  19.9658  0.28544007 13662
TDRS 13                 
1 42915U 17047A   22313.93162105 -.00000096  00000+0  00000+0 0  9992
2 42915   4.2805 334.9637 0013905 124.0309 274.0980  1.00272789 19190
JPSS-1                  
1 43013U 17073A   22314.54910173  .00000096  00000+0  66113-4 0  9996
2 43013  98.7294 250.8814 0001256  58.8127 301.3172 14.19558055257953
